ONEWEB-0697             
1 61603U 24188K   25365.37180037  .00000419  00000+0  11453-2 0  9998
2 61603  87.8833  54.4859 0000977  98.6400 261.4839 13.11415007 62453
ONEWEB-0698             
1 61604U 24188L   25365.50235895  .00000235  00000+0  62799-3 0  9993
2 61604  87.8837  54.4750 0001294  55.4465 304.6785 13.11417090 62491
ONEWEB-0699             
1 61605U 24188M   25365.22900234 -.00000110  00000+0 -35181-3 0  9998
2 61605  87.8804  69.7446 0001032  96.1691 263.9554 13.10377516 61318
ONEWEB-0700             
1 61606U 24188N   25365.23067588 -.00000045  00000+0 -16643-3 0  9995
2 61606  87.8815  69.6315 0001248 125.6400 234.4844 13.10378032 61308
ONEWEB-0701             
1 61607U 24188P   25365.17092779  .00000692  00000+0  19448-2 0  9990
2 61607  87.8798  69.7563 0000850  93.4982 266.6243 13.10374737 61308
ONEWEB-0702             
1 61608U 24188Q   25365.39551991 -.00000445  00000+0 -12908-2 0  9993
2 61608  87.8821  54.3795 0000776 119.4638 240.6568 13.11416651 62493
ONEWEB-0704             
1 61609U 24188R   25365.23564858  .00000134  00000+0  34690-3 0  9999
2 61609  87.8818  69.7111 0000868 126.5483 233.5724 13.10377354 61298
ONEWEB-0705             
1 61610U 24188S   25365.16427999  .00000452  00000+0  12599-2 0  9993
2 61610  87.8805  69.7456 0001944 139.0340 221.0933 13.10376709 53451
